[
    {
        "Altitude(m)": 607886.680225871,
        "Argument of Periapsis(deg)": 0.0,
        "Eccentricity": 0.0,
        "Inclination(deg)": 60.0,
        "Latitude(deg)": 40.998413256036955,
        "Longitude(deg)": -30.02712717798768,
        "Mean Anomaly(deg)": 49.090900000000005,
        "RAAN(deg)": 40.0,
        "Satellite Name": "Test1 179",
        "Satellite Number": 179,
        "Semi-Major Axis(m)": 6980739.136638005,
        "Time(s)": 0
    },
    {
        "Altitude(m)": 607987.5946461984,
        "Argument of Periapsis(deg)": 0.00010418945913296404,
        "Eccentricity": 0.0,
        "Inclination(deg)": 60.0,
        "Latitude(deg)": 41.46350442435645,
        "Longitude(deg)": -29.522901299005788,
        "Mean Anomaly(deg)": 49.711006145461816,
        "RAAN(deg)": 39.99957995086026,
        "Satellite Name": "Test1 179",
        "Satellite Number": 179,
        "Semi-Major Axis(m)": 6980739.136638005,
        "Time(s)": 10
    }
]